start=new Date('2021-11-10T00:00:00.000Z').valueOf();
sats=[{"ARG_OF_PERICENTER":"69.1163","DECAY_DATE":null,"MEAN_MOTION_DDOT":"0.0000000000000","APOAPSIS":"548.207","TLE_LINE2":"2 47133  53.0299 190.5501 0001452  69.1163 290.9981 15.06404004 53636","PERIOD":"95.592","OBJECT_TYPE":"PAYLOAD","MEAN_ANOMALY":"290.9981","MEAN_MOTION":"15.06404004","REF_FRAME":"TEME","FILE":"3210161","RCS_SIZE":"LARGE","PERIAPSIS":"546.196","MEAN_ELEMENT_THEORY":"SGP4","OBJECT_NAME":"STARLINK-1843","TIME_SYSTEM":"UTC","GP_ID":"189338240","ELEMENT_SET_NO":"999","OBJECT_ID":"2020-088M","COUNTRY_CODE":"US","RA_OF_ASC_NODE":"190.5501","CLASSIFICATION_TYPE":"U","TLE_LINE1":"1 47133U 20088M   21313.37387363  .00003436  00000-0  24942-3 0  9996","LAUNCH_DATE":"2020-11-25","EPOCH":"2021-11-09T08:58:22.681632","CENTER_NAME":"EARTH","EPHEMERIS_TYPE":"0","BSTAR":"0.00024942000000","SEMIMAJOR_AXIS":"6925.336","NORAD_CAT_ID":"47133","ECCENTRICITY":"0.00014520","MEAN_MOTION_DOT":"0.00003436","INCLINATION":"53.0299","REV_AT_EPOCH":"5363","SITE":"AFETR"},{"MEAN_ANOMALY":"259.4775","MEAN_MOTION":"15.06431049","REF_FRAME":"TEME","FILE":"3210180","TLE_LINE2":"2 47134  53.0517 198.4628 0004265 100.6694 259.4775 15.06431049 53564","PERIOD":"95.590","OBJECT_TYPE":"PAYLOAD","APOAPSIS":"550.072","MEAN_MOTION_DDOT":"0.0000000000000","ARG_OF_PERICENTER":"100.6694","DECAY_DATE":null,"GP_ID":"189361739","OBJECT_NAME":"STARLINK-1844","TIME_SYSTEM":"UTC","RCS_SIZE":"LARGE","MEAN_ELEMENT_THEORY":"SGP4","PERIAPSIS":"544.165","BSTAR":"0.00051062000000","EPHEMERIS_TYPE":"0","TLE_LINE1":"1 47134U 20088N   21313.81158305  .00007339  00000-0  51062-3 0  9997","LAUNCH_DATE":"2020-11-25","EPOCH":"2021-11-09T19:28:40.775520","CENTER_NAME":"EARTH","OBJECT_ID":"2020-088N","COUNTRY_CODE":"US","RA_OF_ASC_NODE":"198.4628","CLASSIFICATION_TYPE":"U","ELEMENT_SET_NO":"999","SITE":"AFETR","MEAN_MOTION_DOT":"0.00007339","INCLINATION":"53.0517","REV_AT_EPOCH":"5356","SEMIMAJOR_AXIS":"6925.253","NORAD_CAT_ID":"47134","ECCENTRICITY":"0.00042650"},{"ELEMENT_SET_NO":"999","CLASSIFICATION_TYPE":"U","RA_OF_ASC_NODE":"188.6664","COUNTRY_CODE":"US","OBJECT_ID":"2020-088P","CENTER_NAME":"EARTH","EPOCH":"2021-11-09T18:21:01.301760","LAUNCH_DATE":"2020-11-25","TLE_LINE1":"1 47135U 20088P   21313.76459840  .00004485  00000-0  31969-3 0  9993","BSTAR":"0.00031969000000","EPHEMERIS_TYPE":"0","ECCENTRICITY":"0.00014750","NORAD_CAT_ID":"47135","SEMIMAJOR_AXIS":"6925.317","REV_AT_EPOCH":"5369","INCLINATION":"53.0539","MEAN_MOTION_DOT":"0.00004485","SITE":"AFETR","DECAY_DATE":null,"ARG_OF_PERICENTER":"66.7532","APOAPSIS":"548.203","MEAN_MOTION_DDOT":"0.0000000000000","OBJECT_TYPE":"PAYLOAD","PERIOD":"95.591","TLE_LINE2":"2 47135  53.0539 188.6664 0001475  66.7532 293.3613 15.06410393 53694","FILE":"3210180","REF_FRAME":"TEME","MEAN_ANOMALY":"293.3613","MEAN_MOTION":"15.06410393","MEAN_ELEMENT_THEORY":"SGP4","PERIAPSIS":"546.160","RCS_SIZE":"LARGE","TIME_SYSTEM":"UTC","OBJECT_NAME":"STARLINK-1845","GP_ID":"189360487"},{"GP_ID":"189360737","OBJECT_NAME":"STARLINK-1846","TIME_SYSTEM":"UTC","PERIAPSIS":"546.040","MEAN_ELEMENT_THEORY":"SGP4","RCS_SIZE":"LARGE","MEAN_ANOMALY":"290.0966","MEAN_MOTION":"15.06425587","FILE":"3210180","REF_FRAME":"TEME","TLE_LINE2":"2 47136  53.0517 198.3687 0001581  70.0193 290.0966 15.06425587 53565","OBJECT_TYPE":"PAYLOAD","PERIOD":"95.591","APOAPSIS":"548.230","MEAN_MOTION_DDOT":"0.0000000000000","ARG_OF_PERICENTER":"70.0193","DECAY_DATE":null,"SITE":"AFETR","MEAN_MOTION_DOT":"0.00008230","REV_AT_EPOCH":"5356","INCLINATION":"53.0517","SEMIMAJOR_AXIS":"6925.270","NORAD_CAT_ID":"47136","ECCENTRICITY":"0.00015810","BSTAR":"0.00057035000000","EPHEMERIS_TYPE":"0","LAUNCH_DATE":"2020-11-25","TLE_LINE1":"1 47136U 20088Q   21313.83001298  .00008230  00000-0  57035-3 0  9996","CENTER_NAME":"EARTH","EPOCH":"2021-11-09T19:55:13.121472","COUNTRY_CODE":"US","OBJECT_ID":"2020-088Q","CLASSIFICATION_TYPE":"U","RA_OF_ASC_NODE":"198.3687","ELEMENT_SET_NO":"999"},{"FILE":"3210180","REF_FRAME":"TEME","MEAN_MOTION":"15.06410419","MEAN_ANOMALY":"292.6063","OBJECT_TYPE":"PAYLOAD","PERIOD":"95.591","TLE_LINE2":"2 47137  53.0523 188.4544 0001616  67.5097 292.6063 15.06410419 53708","APOAPSIS":"548.301","MEAN_MOTION_DDOT":"0.0000000000000","DECAY_DATE":null,"ARG_OF_PERICENTER":"67.5097","GP_ID":"189361989","TIME_SYSTEM":"UTC","OBJECT_NAME":"STARLINK-1849","MEAN_ELEMENT_THEORY":"SGP4","PERIAPSIS":"546.062","RCS_SIZE":"LARGE","EPHEMERIS_TYPE":"0","BSTAR":"0.00037100000000","CENTER_NAME":"EARTH","EPOCH":"2021-11-09T19:30:01.576800","TLE_LINE1":"1 47137U 20088R   21313.81251825  .00005250  00000-0  37100-3 0  9998","LAUNCH_DATE":"2020-11-25","CLASSIFICATION_TYPE":"U","RA_OF_ASC_NODE":"188.4544","COUNTRY_CODE":"US","OBJECT_ID":"2020-088R","ELEMENT_SET_NO":"999","SITE":"AFETR","INCLINATION":"53.0523","REV_AT_EPOCH":"5370","MEAN_MOTION_DOT":"0.00005250","NORAD_CAT_ID":"47137","ECCENTRICITY":"0.00016160","SEMIMAJOR_AXIS":"6925.317"},{"ELEMENT_SET_NO":"999","COUNTRY_CODE":"US","OBJECT_ID":"2020-088S","CLASSIFICATION_TYPE":"U","RA_OF_ASC_NODE":"193.5845","TLE_LINE1":"1 47138U 20088S   21313.77977064  .00003903  00000-0  28061-3 0  9993","LAUNCH_DATE":"2020-11-25","CENTER_NAME":"EARTH","EPOCH":"2021-11-09T18:42:52.183296","BSTAR":"0.00028061000000","EPHEMERIS_TYPE":"0","SEMIMAJOR_AXIS":"6925.292","NORAD_CAT_ID":"47138","ECCENTRICITY":"0.00016160","MEAN_MOTION_DOT":"0.00003903","REV_AT_EPOCH":"5363","INCLINATION":"53.0517","SITE":"AFETR","ARG_OF_PERICENTER":"67.4502","DECAY_DATE":null,"APOAPSIS":"548.277","MEAN_MOTION_DDOT":"0.0000000000000","TLE_LINE2":"2 47138  53.0517 193.5845 0001616  67.4502 292.6658 15.06418332 53637","OBJECT_TYPE":"PAYLOAD","PERIOD":"95.591","MEAN_ANOMALY":"292.6658","MEAN_MOTION":"15.06418332","FILE":"3210180","REF_FRAME":"TEME","PERIAPSIS":"546.038","MEAN_ELEMENT_THEORY":"SGP4","RCS_SIZE":"LARGE","OBJECT_NAME":"STARLINK-1850","TIME_SYSTEM":"UTC","GP_ID":"189362240"},{"SITE":"AFETR","MEAN_MOTION_DOT":"0.00010161","INCLINATION":"53.0529","REV_AT_EPOCH":"5343","SEMIMAJOR_AXIS":"6925.302","NORAD_CAT_ID":"47139","ECCENTRICITY":"0.00015000","EPHEMERIS_TYPE":"0","BSTAR":"0.00069975000000","TLE_LINE1":"1 47139U 20088T   21313.44341601  .00010161  00000-0  69975-3 0  9993","LAUNCH_DATE":"2020-11-25","EPOCH":"2021-11-09T10:38:31.143264","CENTER_NAME":"EARTH","OBJECT_ID":"2020-088T","COUNTRY_CODE":"US","RA_OF_ASC_NODE":"205.1092","CLASSIFICATION_TYPE":"U","ELEMENT_SET_NO":"999","GP_ID":"189337738","OBJECT_NAME":"STARLINK-1852","TIME_SYSTEM":"UTC","RCS_SIZE":"LARGE","PERIAPSIS":"546.128","MEAN_ELEMENT_THEORY":"SGP4","MEAN_MOTION":"15.06415218","MEAN_ANOMALY":"289.9951","REF_FRAME":"TEME","FILE":"3210161","TLE_LINE2":"2 47139  53.0529 205.1092 0001500  70.1199 289.9951 15.06415218 53433","PERIOD":"95.591","OBJECT_TYPE":"PAYLOAD","MEAN_MOTION_DDOT":"0.0000000000000","APOAPSIS":"548.206","ARG_OF_PERICENTER":"70.1199","DECAY_DATE":null},{"BSTAR":"0.00038788000000","EPHEMERIS_TYPE":"0","EPOCH":"2021-11-09T18:45:31.937760","CENTER_NAME":"EARTH","LAUNCH_DATE":"2020-11-25","TLE_LINE1":"1 47140U 20088U   21313.78161965  .00068263  00000-0  38788-3 0  9999","RA_OF_ASC_NODE":"153.4496","CLASSIFICATION_TYPE":"U","OBJECT_ID":"2020-088U","COUNTRY_CODE":"US","ELEMENT_SET_NO":"999","SITE":"AFETR","REV_AT_EPOCH":"5419","INCLINATION":"53.0491","MEAN_MOTION_DOT":"0.00068263","NORAD_CAT_ID":"47140","ECCENTRICITY":"0.00085470","SEMIMAJOR_AXIS":"6713.262","REF_FRAME":"TEME","FILE":"3210180","MEAN_MOTION":"15.78346717","MEAN_ANOMALY":"44.0447","PERIOD":"91.235","OBJECT_TYPE":"PAYLOAD","TLE_LINE2":"2 47140  53.0491 153.4496 0008547 315.9892  44.0447 15.78346717 54194","APOAPSIS":"340.864","MEAN_MOTION_DDOT":"0.0000000000000","DECAY_DATE":null,"ARG_OF_PERICENTER":"315.9892","GP_ID":"189361238","TIME_SYSTEM":"UTC","OBJECT_NAME":"STARLINK-1853","RCS_SIZE":"LARGE","PERIAPSIS":"329.389","MEAN_ELEMENT_THEORY":"SGP4"},{"MEAN_MOTION_DOT":"0.00002410","REV_AT_EPOCH":"5368","INCLINATION":"53.0631","SITE":"AFETR","SEMIMAJOR_AXIS":"6925.307","NORAD_CAT_ID":"47141","ECCENTRICITY":"0.00017110","LAUNCH_DATE":"2020-11-25","TLE_LINE1":"1 47141U 20088V   21313.65401993  .00002410  00000-0  18058-3 0  9994","EPOCH":"2021-11-09T15:41:47.321952","CENTER_NAME":"EARTH","EPHEMERIS_TYPE":"0","BSTAR":"0.00018058000000","ELEMENT_SET_NO":"999","OBJECT_ID":"2020-088V","COUNTRY_CODE":"US","RA_OF_ASC_NODE":"189.1072","CLASSIFICATION_TYPE":"U","GP_ID":"189361489","RCS_SIZE":"LARGE","PERIAPSIS":"545.987","MEAN_ELEMENT_THEORY":"SGP4","OBJECT_NAME":"STARLINK-1854","TIME_SYSTEM":"UTC","TLE_LINE2":"2 47141  53.0631 189.1072 0001711  68.5059 291.6112 15.06413613 53682","PERIOD":"95.591","OBJECT_TYPE":"PAYLOAD","MEAN_ANOMALY":"291.6112","MEAN_MOTION":"15.06413613","REF_FRAME":"TEME","FILE":"3210180","ARG_OF_PERICENTER":"68.5059","DECAY_DATE":null,"MEAN_MOTION_DDOT":"0.0000000000000","APOAPSIS":"548.357"},{"FILE":"3210161","REF_FRAME":"TEME","MEAN_MOTION":"15.06415324","MEAN_ANOMALY":"286.5363","OBJECT_TYPE":"PAYLOAD","PERIOD":"95.591","TLE_LINE2":"2 47143  53.0525 190.4263 0001544  73.5795 286.5363 15.06415324 53637","APOAPSIS":"548.236","MEAN_MOTION_DDOT":"0.0000000000000","DECAY_DATE":null,"ARG_OF_PERICENTER":"73.5795","GP_ID":"189337488","TIME_SYSTEM":"UTC","OBJECT_NAME":"STARLINK-1856","MEAN_ELEMENT_THEORY":"SGP4","PERIAPSIS":"546.097","RCS_SIZE":"LARGE","BSTAR":"0.00059997000000","EPHEMERIS_TYPE":"0","CENTER_NAME":"EARTH","EPOCH":"2021-11-09T08:53:05.560800","LAUNCH_DATE":"2020-11-25","TLE_LINE1":"1 47143U 20088X   21313.37020325  .00008670  00000-0  59997-3 0  9992","CLASSIFICATION_TYPE":"U","RA_OF_ASC_NODE":"190.4263","COUNTRY_CODE":"US","OBJECT_ID":"2020-088X","ELEMENT_SET_NO":"999","SITE":"AFETR","INCLINATION":"53.0525","REV_AT_EPOCH":"5363","MEAN_MOTION_DOT":"0.00008670","NORAD_CAT_ID":"47143","ECCENTRICITY":"0.00015440","SEMIMAJOR_AXIS":"6925.302"}];
